{
  "links" : {
    "next" : "https://api.nasa.gov/neo/rest/v1/neo/browse?page=20&size=20&api_key=jqAGvNAwUIBu4fl9FSOjdm3V4F7hIglRzI6pdX9d",
    "prev" : "https://api.nasa.gov/neo/rest/v1/neo/browse?page=18&size=20&api_key=jqAGvNAwUIBu4fl9FSOjdm3V4F7hIglRzI6pdX9d",
    "self" : "https://api.nasa.gov/neo/rest/v1/neo/browse?page=19&size=20&api_key=jqAGvNAwUIBu4fl9FSOjdm3V4F7hIglRzI6pdX9d"
  },
  "page" : {
    "size" : 20,
    "total_elements" : 20750,
    "total_pages" : 1038,
    "number" : 19
  },
  "near_earth_objects" : [ {
    "links" : {
      "self" : "https://api.nasa.gov/neo/rest/v1/neo/3273482?api_key=jqAGvNAwUIBu4fl9FSOjdm3V4F7hIglRzI6pdX9d"
    },
    "neo_reference_id" : "3273482",
    "name" : "(2005 ET2)",
    "designation" : "2005 ET2",
    "nasa_jpl_url" : "http://ssd.jpl.nasa.gov/sbdb.cgi?sstr=3273482",
    "absolute_magnitude_h" : 20.7,
    "estimated_diameter" : {
      "kilometers" : {
        "estimated_diameter_min" : 0.1925550782,
        "estimated_diameter_max" : 0.4305662442
      },
      "meters" : {
        "estimated_diameter_min" : 192.5550781879,
        "estimated_diameter_max" : 430.566244241
      },
      "miles" : {
        "estimated_diameter_min" : 0.1196481415,
        "estimated_diameter_max" : 0.2675413778
      },
      "feet" : {
        "estimated_diameter_min" : 631.7424027221,
        "estimated_diameter_max" : 1412.6189567557
      }
    },
    "is_potentially_hazardous_asteroid" : false,
    "close_approach_data" : [ {
      "close_approach_date" : "2005-06-16",
      "epoch_date_close_approach" : 1118905200000,
      "relative_velocity" : {
        "kilometers_per_second" : "10.8747173281",
        "kilometers_per_hour" : "39148.9823810916",
        "miles_per_hour" : "24325.6551911844"
      },
      "miss_distance" : {
        "astronomical" : "0.1557350351",
        "lunar" : "60.5809288025",
        "kilometers" : "23297630",
        "miles" : "14476476"
      },
      "orbiting_body" : "Earth"
    } ],
    "orbital_data" : {
      "orbit_id" : "7",
      "orbit_determination_date" : "2017-04-06 09:11:25",
      "first_observation_date" : "2005-03-04",
      "last_observation_date" : "2005-03-08",
      "data_arc_in_days" : 4,
      "observations_used" : 22,
      "orbit_uncertainty" : "9",
      "minimum_orbit_intersection" : ".0605789",
      "jupiter_tisserand_invariant" : "3.404",
      "epoch_osculation" : "2453435.5",
      "eccentricity" : ".604904336633672",
      "semi_major_axis" : "2.190627698916342",
      "inclination" : "5.702204641188697",
      "ascending_node_longitude" : "333.7874088282431",
      "orbital_period" : "1184.271530029205",
      "perihelion_distance" : ".8655075038920048",
      "perihelion_argument" : "268.297091669625",
      "aphelion_distance" : "3.515747893940679",
      "perihelion_time" : "2453520.119763701069",
      "mean_anomaly" : "334.2769169401264",
      "mean_motion" : ".3039843404756358",
      "equinox" : "J2000",
      "orbit_class" : {
        "orbit_class_type" : "APO",
        "orbit_class_range" : "a (semi-major axis) > 1.0 AU; q (perihelion) < 1.017 AU",
        "orbit_class_description" : "Near-Earth asteroid orbits which cross the Earth’s orbit similar to that of 1862 Apollo"
      }
    },
    "is_sentry_object" : false
  }, {
    "links" : {
      "self" : "https://api.nasa.gov/neo/rest/v1/neo/3273522?api_key=jqAGvNAwUIBu4fl9FSOjdm3V4F7hIglRzI6pdX9d"
    },
    "neo_reference_id" : "3273522",
    "name" : "(2005 EN30)",
    "designation" : "2005 EN30",
    "nasa_jpl_url" : "http://ssd.jpl.nasa.gov/sbdb.cgi?sstr=3273522",
    "absolute_magnitude_h" : 23.0,
    "estimated_diameter" : {
      "kilometers" : {
        "estimated_diameter_min" : 0.0667659413,
        "estimated_diameter_max" : 0.1492931834
      },
      "meters" : {
        "estimated_diameter_min" : 66.7659413495,
        "estimated_diameter_max" : 149.2931834393
      },
      "miles" : {
        "estimated_diameter_min" : 0.0414864197,
        "estimated_diameter_max" : 0.0927664547
      },
      "feet" : {
        "estimated_diameter_min" : 219.0483710172,
        "estimated_diameter_max" : 489.807047955
      }
    },
    "is_potentially_hazardous_asteroid" : false,
    "close_approach_data" : [ {
      "close_approach_date" : "2005-03-09",
      "epoch_date_close_approach" : 1110355200000,
      "relative_velocity" : {
        "kilometers_per_second" : "11.0118059726",
        "kilometers_per_hour" : "39642.5015013017",
        "miles_per_hour" : "24632.3087800727"
      },
      "miss_distance" : {
        "astronomical" : "0.1956018071",
        "lunar" : "76.0891036987",
        "kilometers" : "29261614",
        "miles" : "18182324"
      },
      "orbiting_body" : "Earth"
    } ],
    "orbital_data" : {
      "orbit_id" : "7",
      "orbit_determination_date" : "2017-04-06 09:11:23",
      "first_observation_date" : "2005-03-04",
      "last_observation_date" : "2005-03-16",
      "data_arc_in_days" : 12,
      "observations_used" : 22,
      "orbit_uncertainty" : "9",
      "minimum_orbit_intersection" : ".195298",
      "jupiter_tisserand_invariant" : "4.110",
      "epoch_osculation" : "2453436.5",
      "eccentricity" : ".2983058800968327",
      "semi_major_axis" : "1.682024017392031",
      "inclination" : "20.50329694908535",
      "ascending_node_longitude" : "344.2905167238859",
      "orbital_period" : "796.7952124775566",
      "perihelion_distance" : "1.180266362539891",
      "perihelion_argument" : "196.2775312698753",
      "aphelion_distance" : "2.183781672244171",
      "perihelion_time" : "2453452.696327893340",
      "mean_anomaly" : "352.682338008191",
      "mean_motion" : ".451809943587155",
      "equinox" : "J2000",
      "orbit_class" : {
        "orbit_class_type" : "AMO",
        "orbit_class_range" : "1.017 AU < q (perihelion) < 1.3 AU",
        "orbit_class_description" : "Near-Earth asteroid orbits similar to that of 1221 Amor"
      }
    },
    "is_sentry_object" : false
  }, {
    "links" : {
      "self" : "https://api.nasa.gov/neo/rest/v1/neo/3273523?api_key=jqAGvNAwUIBu4fl9FSOjdm3V4F7hIglRzI6pdX9d"
    },
    "neo_reference_id" : "3273523",
    "name" : "(2005 EO30)",
    "designation" : "2005 EO30",
    "nasa_jpl_url" : "http://ssd.jpl.nasa.gov/sbdb.cgi?sstr=3273523",
    "absolute_magnitude_h" : 23.0,
    "estimated_diameter" : {
      "kilometers" : {
        "estimated_diameter_min" : 0.0667659413,
        "estimated_diameter_max" : 0.1492931834
      },
      "meters" : {
        "estimated_diameter_min" : 66.7659413495,
        "estimated_diameter_max" : 149.2931834393
      },
      "miles" : {
        "estimated_diameter_min" : 0.0414864197,
        "estimated_diameter_max" : 0.0927664547
      },
      "feet" : {
        "estimated_diameter_min" : 219.0483710172,
        "estimated_diameter_max" : 489.807047955
      }
    },
    "is_potentially_hazardous_asteroid" : false,
    "close_approach_data" : [ {
      "close_approach_date" : "2001-02-18",
      "epoch_date_close_approach" : 982483200000,
      "relative_velocity" : {
        "kilometers_per_second" : "17.1211020518",
        "kilometers_per_hour" : "61635.9673865585",
        "miles_per_hour" : "38298.1931797202"
      },
      "miss_distance" : {
        "astronomical" : "0.4856007448",
        "lunar" : "188.8986816406",
        "kilometers" : "72644840",
        "miles" : "45139408"
      },
      "orbiting_body" : "Earth"
    }, {
      "close_approach_date" : "2005-03-07",
      "epoch_date_close_approach" : 1110182400000,
      "relative_velocity" : {
        "kilometers_per_second" : "8.1092734366",
        "kilometers_per_hour" : "29193.3843716033",
        "miles_per_hour" : "18139.6337502331"
      },
      "miss_distance" : {
        "astronomical" : "0.0616654322",
        "lunar" : "23.9878520966",
        "kilometers" : "9225017",
        "miles" : "5732160"
      },
      "orbiting_body" : "Earth"
    }, {
      "close_approach_date" : "2009-03-28",
      "epoch_date_close_approach" : 1238223600000,
      "relative_velocity" : {
        "kilometers_per_second" : "12.0728744561",
        "kilometers_per_hour" : "43462.3480421256",
        "miles_per_hour" : "27005.812870953"
      },
      "miss_distance" : {
        "astronomical" : "0.3606090439",
        "lunar" : "140.2769165039",
        "kilometers" : "53946348",
        "miles" : "33520706"
      },
      "orbiting_body" : "Earth"
    } ],
    "orbital_data" : {
      "orbit_id" : "7",
      "orbit_determination_date" : "2017-04-06 09:11:23",
      "first_observation_date" : "2005-03-04",
      "last_observation_date" : "2005-03-15",
      "data_arc_in_days" : 11,
      "observations_used" : 23,
      "orbit_uncertainty" : "8",
      "minimum_orbit_intersection" : ".0378201",
      "jupiter_tisserand_invariant" : "5.178",
      "epoch_osculation" : "2453437.5",
      "eccentricity" : ".1606078338683103",
      "semi_major_axis" : "1.224784085829693",
      "inclination" : "13.98586407967873",
      "ascending_node_longitude" : "347.730569551029",
      "orbital_period" : "495.0940750091102",
      "perihelion_distance" : "1.028074166848207",
      "perihelion_argument" : "191.7916127870693",
      "aphelion_distance" : "1.421494004811178",
      "perihelion_time" : "2453446.624542552433",
      "mean_anomaly" : "353.3652299942886",
      "mean_motion" : ".7271345349737334",
      "equinox" : "J2000",
      "orbit_class" : {
        "orbit_class_type" : "AMO",
        "orbit_class_range" : "1.017 AU < q (perihelion) < 1.3 AU",
        "orbit_class_description" : "Near-Earth asteroid orbits similar to that of 1221 Amor"
      }
    },
    "is_sentry_object" : false
  } ]
}